{
  "type": "FeatureCollection",
  "features": [
    {
      "type": "Feature",
      "properties": {
        "norad_id": 43262,
        "name": "GAOFEN-1 04",
        "group": "resource",
        "lat": 42.75211416361366,
        "lon": -120.99737040065627,
        "alt_km": 637.1183642280785,
        "timestamp": "2025-12-19T14:48:35.902071+00:00",
        "meta_object_name": "GAOFEN-1 04",
        "meta_object_id": "2018-031D",
        "meta_epoch": "2025-12-19T07:41:13.604640",
        "meta_mean_motion": 14.76418559,
        "meta_eccentricity": 7.537e-05,
        "meta_inclination": 98.0805,
        "meta_ra_of_asc_node": 51.1589,
        "meta_arg_of_pericenter": 49.9273,
        "meta_mean_anomaly": 310.2003,
        "meta_ephemeris_type": 0,
        "meta_classification_type": "U",
        "meta_norad_cat_id": 43262,
        "meta_element_set_no": 999,
        "meta_rev_at_epoch": 41614,
        "meta_bstar": 9.6712131e-05,
        "meta_mean_motion_dot": 6.2e-06,
        "meta_mean_motion_ddot": 0,
        "tle_line1": "1 43262U 18031D   25353.32029635  .00000620  00000+0  96712-4 0  9994",
        "tle_line2": "2 43262  98.0805  51.1589 0000753  49.9273 310.2003 14.76418559416142"
      },
      "geometry": {
        "type": "Point",
        "coordinates": [
          -120.99737040065627,
          42.75211416361366
        ]
      }
    },
    {
      "type": "Feature",
      "properties": {
        "norad_id": 43437,
        "name": "SENTINEL-3B",
        "group": "resource",
        "lat": 25.26744602280512,
        "lon": -117.18775327136203,
        "alt_km": 801.2588871015405,
        "timestamp": "2025-12-19T14:48:35.902081+00:00",
        "meta_object_name": "SENTINEL-3B",
        "meta_object_id": "2018-039A",
        "meta_epoch": "2025-12-19T03:59:25.738368",
        "meta_mean_motion": 14.26736386,
        "meta_eccentricity": 0.0001621,
        "meta_inclination": 98.626,
        "meta_ra_of_asc_node": 58.2593,
        "meta_arg_of_pericenter": 95.3143,
        "meta_mean_anomaly": 264.8222,
        "meta_ephemeris_type": 0,
        "meta_classification_type": "U",
        "meta_norad_cat_id": 43437,
        "meta_element_set_no": 999,
        "meta_rev_at_epoch": 39845,
        "meta_bstar": 6.4159953e-05,
        "meta_mean_motion_dot": 1.12e-06,
        "meta_mean_motion_ddot": 0,
        "tle_line1": "1 43437U 18039A   25353.16627012  .00000112  00000+0  64160-4 0  9999",
        "tle_line2": "2 43437  98.6260  58.2593 0001621  95.3143 264.8222 14.26736386398452"
      },
      "geometry": {
        "type": "Point",
        "coordinates": [
          -117.18775327136203,
          25.26744602280512
        ]
      }
    },
    {
      "type": "Feature",
      "properties": {
        "norad_id": 43461,
        "name": "GAOFEN-5 01",
        "group": "resource",
        "lat": -73.70915180085514,
        "lon": 106.19721193938658,
        "alt_km": 698.8404293325129,
        "timestamp": "2025-12-19T14:48:35.902091+00:00",
        "meta_object_name": "GAOFEN-5 01",
        "meta_object_id": "2018-043A",
        "meta_epoch": "2025-12-19T03:46:30.833184",
        "meta_mean_motion": 14.60416512,
        "meta_eccentricity": 5.821e-05,
        "meta_inclination": 98.4333,
        "meta_ra_of_asc_node": 316.2368,
        "meta_arg_of_pericenter": 303.4918,
        "meta_mean_anomaly": 56.6226,
        "meta_ephemeris_type": 0,
        "meta_classification_type": "U",
        "meta_norad_cat_id": 43461,
        "meta_element_set_no": 999,
        "meta_rev_at_epoch": 40541,
        "meta_bstar": 8.1170792e-05,
        "meta_mean_motion_dot": 3.44e-06,
        "meta_mean_motion_ddot": 0,
        "tle_line1": "1 43461U 18043A   25353.15730131  .00000344  00000+0  81171-4 0  9995",
        "tle_line2": "2 43461  98.4333 316.2368 0000582 303.4918  56.6226 14.60416512405413"
      },
      "geometry": {
        "type": "Point",
        "coordinates": [
          106.19721193938658,
          -73.70915180085514
        ]
      }
    },
    {
      "type": "Feature",
      "properties": {
        "norad_id": 43484,
        "name": "GAOFEN-6",
        "group": "resource",
        "lat": -68.198407814861,
        "lon": 77.70199601404892,
        "alt_km": 650.9086867595624,
        "timestamp": "2025-12-19T14:48:35.902102+00:00",
        "meta_object_name": "GAOFEN-6",
        "meta_object_id": "2018-048A",
        "meta_epoch": "2025-12-19T06:59:33.584352",
        "meta_mean_motion": 14.7657886,
        "meta_eccentricity": 0.00128992,
        "meta_inclination": 97.803,
        "meta_ra_of_asc_node": 57.3386,
        "meta_arg_of_pericenter": 44.3147,
        "meta_mean_anomaly": 315.9094,
        "meta_ephemeris_type": 0,
        "meta_classification_type": "U",
        "meta_norad_cat_id": 43484,
        "meta_element_set_no": 999,
        "meta_rev_at_epoch": 40684,
        "meta_bstar": 0.00014465727,
        "meta_mean_motion_dot": 9.61e-06,
        "meta_mean_motion_ddot": 0,
        "tle_line1": "1 43484U 18048A   25353.29136093  .00000961  00000+0  14466-3 0  9994",
        "tle_line2": "2 43484  97.8030  57.3386 0012899  44.3147 315.9094 14.76578860406841"
      },
      "geometry": {
        "type": "Point",
        "coordinates": [
          77.70199601404892,
          -68.198407814861
        ]
      }
    },
    {
      "type": "Feature",
      "properties": {
        "norad_id": 43585,
        "name": "GAOFEN-11 01",
        "group": "resource",
        "lat": 81.13732972969878,
        "lon": -69.82100330498129,
        "alt_km": 413.7185378875638,
        "timestamp": "2025-12-19T14:48:35.902112+00:00",
        "meta_object_name": "GAOFEN-11 01",
        "meta_object_id": "2018-063A",
        "meta_epoch": "2025-12-19T06:39:01.122048",
        "meta_mean_motion": 15.49399929,
        "meta_eccentricity": 0.00039438,
        "meta_inclination": 97.1561,
        "meta_ra_of_asc_node": 56.158,
        "meta_arg_of_pericenter": 279.6714,
        "meta_mean_anomaly": 80.4092,
        "meta_ephemeris_type": 0,
        "meta_classification_type": "U",
        "meta_norad_cat_id": 43585,
        "meta_element_set_no": 999,
        "meta_rev_at_epoch": 41243,
        "meta_bstar": 0.00024249714,
        "meta_mean_motion_dot": 0.00013223,
        "meta_mean_motion_ddot": 0,
        "tle_line1": "1 43585U 18063A   25353.27709632  .00013223  00000+0  24250-3 0  9993",
        "tle_line2": "2 43585  97.1561  56.1580 0003943 279.6714  80.4092 15.49399929412433"
      },
      "geometry": {
        "type": "Point",
        "coordinates": [
          -69.82100330498129,
          81.13732972969878
        ]
      }
    },
    {
      "type": "Feature",
      "properties": {
        "norad_id": 43613,
        "name": "ICESAT-2",
        "group": "resource",
        "lat": 29.40752626887812,
        "lon": -118.53828932795156,
        "alt_km": 479.8697066286886,
        "timestamp": "2025-12-19T14:48:35.902122+00:00",
        "meta_object_name": "ICESAT-2",
        "meta_object_id": "2018-070A",
        "meta_epoch": "2025-12-19T05:15:10.228896",
        "meta_mean_motion": 15.28307439,
        "meta_eccentricity": 0.00029329,
        "meta_inclination": 92.005,
        "meta_ra_of_asc_node": 242.4857,
        "meta_arg_of_pericenter": 128.6198,
        "meta_mean_anomaly": 231.5314,
        "meta_ephemeris_type": 0,
        "meta_classification_type": "U",
        "meta_norad_cat_id": 43613,
        "meta_element_set_no": 999,
        "meta_rev_at_epoch": 40497,
        "meta_bstar": 0.00032873283,
        "meta_mean_motion_dot": 9.062e-05,
        "meta_mean_motion_ddot": 0,
        "tle_line1": "1 43613U 18070A   25353.21886839  .00009062  00000+0  32873-3 0  9998",
        "tle_line2": "2 43613  92.0050 242.4857 0002932 128.6198 231.5314 15.28307439404973"
      },
      "geometry": {
        "type": "Point",
        "coordinates": [
          -118.53828932795156,
          29.40752626887812
        ]
      }
    },
    {
      "type": "Feature",
      "properties": {
        "norad_id": 43719,
        "name": "HYSIS",
        "group": "resource",
        "lat": 17.226719768167346,
        "lon": 54.05937315845297,
        "alt_km": 633.4374568357689,
        "timestamp": "2025-12-19T14:48:35.902132+00:00",
        "meta_object_name": "HYSIS",
        "meta_object_id": "2018-096A",
        "meta_epoch": "2025-12-19T06:36:40.174272",
        "meta_mean_motion": 14.78663019,
        "meta_eccentricity": 0.00010706,
        "meta_inclination": 98.0096,
        "meta_ra_of_asc_node": 56.2217,
        "meta_arg_of_pericenter": 51.0945,
        "meta_mean_anomaly": 309.0361,
        "meta_ephemeris_type": 0,
        "meta_classification_type": "U",
        "meta_norad_cat_id": 43719,
        "meta_element_set_no": 999,
        "meta_rev_at_epoch": 38083,
        "meta_bstar": 0.00017280821,
        "meta_mean_motion_dot": 1.214e-05,
        "meta_mean_motion_ddot": 0,
        "tle_line1": "1 43719U 18096A   25353.27546498  .00001214  00000+0  17281-3 0  9990",
        "tle_line2": "2 43719  98.0096  56.2217 0001070  51.0945 309.0361 14.78663019380832"
      },
      "geometry": {
        "type": "Point",
        "coordinates": [
          54.05937315845297,
          17.226719768167346
        ]
      }
    }
  ]
}